STARLINK-2354           
1 47894U 21021AL  26087.74841875  .00016963  00000+0  57792-3 0  9992
2 47894  53.1512 179.5844 0000734  14.9123 345.1899 15.30513798279103
