{
  "norad_id": 47894,
  "name": "STARLINK-2354",
  "history": [
    {
      "epoch": "2026-03-28T17:57:43.380000",
      "apogee_km": 474.7818007156775,
      "perigee_km": 473.77476976535854,
      "latitude_deg": -42.36530241773494,
      "longitude_deg": 121.24820000003092,
      "semi_major_axis_km": 6852.415285240518,
      "eccentricity": 7.348e-05,
      "inclination_deg": 53.1512,
      "raan_deg": 179.5844,
      "arg_perigee_deg": 14.9123,
      "mean_anomaly_deg": 345.1899,
      "mean_motion_rev_day": 15.30513798
    }
  ]
}